EUTELSAT QUANTUM        
1 49056U 21069B   25342.27941502  .00000128  00000+0  00000+0 0  9997
2 49056   0.0319  52.4153 0003690 217.2785 315.8847  1.00271486 16012
EUTELSAT KONNECT VHTS   
1 53765U 22110A   25342.28202373  .00000020  00000+0  00000+0 0  9995
2 53765   0.0619 104.5335 0002632 133.3909 303.6046  1.00270040  4916
EUTELSAT HOTBIRD 13F    
1 54048U 22134A   25342.28410374  .00000090  00000+0  00000+0 0  9995
2 54048   0.0494 291.7852 0002026  61.5762 199.2251  1.00271316 11463
EUTELSAT HOTBIRD 13G    
1 54225U 22146A   25342.28410374  .00000090  00000+0  00000+0 0  9995
2 54225   0.0495 236.7003 0001907 310.8753   4.9908  1.00270747  5556
EUTELSAT 10B            
1 54259U 22157A   25342.28349706  .00000070  00000+0  00000+0 0  9992
2 54259   0.0620 100.9204 0000888  77.2749  11.1371  1.00268400 11110
EUTELSAT 36D            
1 59346U 24059A   25342.00326574  .00000159  00000+0  00000+0 0  9993
2 59346   0.0173 323.6814 0000739   0.9283 149.4537  1.00270249  6237
